NORAD_CAT_ID,OBJECT_NAME,OBJECT_TYPE,EPOCH,MEAN_MOTION,ECCENTRICITY,INCLINATION,RA_OF_ASC_NODE,ARG_OF_PERICENTER,MEAN_ANOMALY,BSTAR,MEAN_MOTION_DOT,MEAN_MOTION_DDOT,TLE_LINE0,TLE_LINE1,TLE_LINE2,SEMIMAJOR_AXIS,PERIOD,APOGEE,PERIGEE,DECAYED
50166.0,STARLINK-3305,PAYLOAD,2022-03-16 14:00:01,15.19257623,0.0001433,53.2175,297.1511,55.0818,10.9992,-0.033152,-0.00663276,0.0,0 STARLINK-3305,1 50166U 21125L   22075.58334491 -.00663276  00000-0 -33152-1 0  9999,2 50166  53.2175 297.1511 0001433  55.0818  10.9992 15.19257623  3630,6886.22,94.783,509.072,507.098,0.0
50166.0,STARLINK-3305,PAYLOAD,2022-03-16 20:00:01,15.18909055,0.0001401,53.2174,296.0114,57.5609,296.4444,-0.033605,-0.00665408,0.0,0 STARLINK-3305,1 50166U 21125L   22075.83334491 -.00665408  00000-0 -33605-1 0  9999,2 50166  53.2174 296.0114 0001401  57.5609 296.4444 15.18909055  3631,6887.273,94.805,510.103,508.174,0.0
50166.0,STARLINK-3305,PAYLOAD,2022-03-17 06:00:00,15.18325329,0.0001341999999999,53.2173,294.1102,68.5527,44.6287,-0.034151,-0.00664885,0.0,0 STARLINK-3305,1 50166U 21125L   22076.25001157 -.00664885  00000-0 -34151-1 0  9991,2 50166  53.2173 294.1102 0001342  68.5527  44.6287 15.18325329 14086,6889.0390000000025,94.841,511.828,509.979,0.0
50166.0,STARLINK-3305,PAYLOAD,2022-03-17 14:00:01,15.17859146,0.0001463,53.2176,292.5899,62.632,73.2593,-0.034619,-0.00664969,0.0,0 STARLINK-3305,1 50166U 21125L   22076.58334491 -.00664969  00000-0 -34619-1 0  9999,2 50166  53.2176 292.5899 0001463  62.6320  73.2593 15.17859146  3651,6890.449000000001,94.87,513.322,511.306,0.0
50166.0,STARLINK-3305,PAYLOAD,2022-03-17 22:00:00,15.17392872,0.0001554,53.2174,291.0735,59.1437,98.8956,-0.035163,-0.00666308,0.0,0 STARLINK-3305,1 50166U 21125L   22076.91667824 -.00666308  00000-0 -35163-1 0  9999,2 50166  53.2174 291.0735 0001554  59.1437  98.8956 15.17392872  3657,6891.861,94.9,514.797,512.655,0.0
50166.0,STARLINK-3305,PAYLOAD,2022-03-18 08:00:01,15.16810219,0.0001359,53.2175,289.1759,66.7588,208.1788,-0.03578,-0.00666679,0.0,0 STARLINK-3305,1 50166U 21125L   22077.33334491 -.00666679  00000-0 -35780-1 0  9993,2 50166  53.2175 289.1759 0001359  66.7588 208.1788 15.16810219 14241,6893.625,94.936,516.427,514.554,0.0
50166.0,STARLINK-3305,PAYLOAD,2022-03-18 14:00:01,15.16459425,0.0001509,53.2176,288.0385,66.9959,133.6603,-0.036024,-0.00664649,0.0,0 STARLINK-3305,1 50166U 21125L   22077.58334491 -.00664649  00000-0 -36024-1 0  9997,2 50166  53.2176 288.0385 0001509  66.9959 133.6603 15.16459425  3655,6894.688,94.958,517.594,515.513,0.0
50166.0,STARLINK-3305,PAYLOAD,2022-03-18 22:00:00,15.15991935,0.0001561,53.2175,286.5252,63.6028,157.5201,-0.036466,-0.0066391,0.0,0 STARLINK-3305,1 50166U 21125L   22077.91667824 -.00663910  00000-0 -36466-1 0  9993,2 50166  53.2175 286.5252 0001561  63.6028 157.5201 15.15991935  3654,6896.106,94.987,519.047,516.894,0.0
50166.0,STARLINK-3305,PAYLOAD,2022-03-19 14:00:01,15.15059265,0.0001464,53.2175,283.4967,67.0986,193.2771,-0.03744,-0.00663744,0.0,0 STARLINK-3305,1 50166U 21125L   22078.58334491 -.00663744  00000-0 -37440-1 0  9996,2 50166  53.2175 283.4967 0001464  67.0986 193.2771 15.15059265 14434,6898.936,95.046,521.811,519.7909999999998,0.0
50166.0,STARLINK-3305,PAYLOAD,2022-03-19 22:00:01,15.14592086,0.0001530999999999,53.2176,281.9867,61.1201,218.1034,-0.037926,-0.00663514,0.0,0 STARLINK-3305,1 50166U 21125L   22078.91668981 -.00663514  00000-0 -37926-1 0  9991,2 50166  53.2176 281.9867 0001531  61.1201 218.1034 15.14592086  3650,6900.354,95.075,523.276,521.163,0.0
50166.0,STARLINK-3305,PAYLOAD,2022-03-20 14:00:01,15.13659303,0.0001372,53.2176,278.9647,67.4016,247.6479,-0.038933,-0.00663374,0.0,0 STARLINK-3305,1 50166U 21125L   22079.58334491 -.00663374  00000-0 -38933-1 0  9994,2 50166  53.2176 278.9647 0001372  67.4016 247.6479 15.13659303  3631,6903.189,95.134,526.001,524.107,0.0
50166.0,STARLINK-3305,PAYLOAD,2022-03-20 22:00:01,15.13192738,0.0001366,53.2176,277.458,69.1228,263.0923,-0.039501,-0.00664198,0.0,0 STARLINK-3305,1 50166U 21125L   22079.91668981 -.00664198  00000-0 -39501-1 0  9992,2 50166  53.2176 277.4580 0001366  69.1228 263.0923 15.13192738 14630,6904.608,95.163,527.4159999999998,525.53,0.0
50166.0,STARLINK-3305,PAYLOAD,2022-03-21 14:00:01,15.12259538,0.0001358,53.2176,274.4426,64.8606,299.8169,-0.040505,-0.00663502,0.0,0 STARLINK-3305,1 50166U 21125L   22080.58334491 -.00663502  00000-0 -40505-1 0  9997,2 50166  53.2176 274.4426 0001358  64.8606 299.8169 15.12259538  3626,6907.448,95.222,530.251,528.375,0.0
50166.0,STARLINK-3305,PAYLOAD,2022-03-21 22:00:00,15.11792932,0.0001339,53.2176,272.9391,66.0148,314.0833,-0.041091,-0.00664312,0.0,0 STARLINK-3305,1 50166U 21125L   22080.91667824 -.00664312  00000-0 -41091-1 0  9994,2 50166  53.2176 272.9391 0001339  66.0148 314.0833 15.11792932  3632,6908.869000000002,95.251,531.659,529.809,0.0
50166.0,STARLINK-3305,PAYLOAD,2022-03-22 06:00:00,15.11212957,0.0001226,53.2164,271.4349,60.4988,334.5206,-0.031559,-0.00505549,0.0,0 STARLINK-3305,1 50166U 21125L   22081.25001157 -.00505549  00000-0 -31559-1 0  9997,2 50166  53.2164 271.4349 0001226  60.4988 334.5206 15.11212957 14841,6910.637,95.288,533.349,531.654,0.0
50166.0,STARLINK-3305,PAYLOAD,2022-03-22 14:00:01,15.10859838,0.0001367,53.2175,269.9303,63.0235,346.2363,-0.042143,-0.00663856,0.0,0 STARLINK-3305,1 50166U 21125L   22081.58334491 -.00663856  00000-0 -42143-1 0  9990,2 50166  53.2175 269.9303 0001367  63.0235 346.2363 15.10859838 14898,6911.7130000000025,95.31,534.523,532.634,0.0
50166.0,STARLINK-3305,PAYLOAD,2022-03-22 22:00:01,15.10392342,0.0001357,53.2175,268.4299,66.2105,356.8512,-0.042646,-0.00663158,0.0,0 STARLINK-3305,1 50166U 21125L   22081.91668981 -.00663158  00000-0 -42646-1 0  9994,2 50166  53.2175 268.4299 0001357  66.2105 356.8512 15.10392342  3631,6913.14,95.339,535.943,534.066,0.0
50166.0,STARLINK-3305,PAYLOAD,2022-03-23 14:00:01,15.09455156,0.0001448,53.2174,265.4279,61.7157,27.0815,-0.043093,-0.00653595,0.0,0 STARLINK-3305,1 50166U 21125L   22082.58334491 -.00653595  00000-0 -43093-1 0  9995,2 50166  53.2174 265.4279 0001448  61.7157  27.0815 15.09455156  3648,6916.001,95.399,538.867,536.864,0.0
50166.0,STARLINK-3305,PAYLOAD,2022-03-23 22:00:00,15.0887249,0.0001419,53.2175,263.9316,62.5984,38.2686,-0.0036021,-0.00057211,0.0,0 STARLINK-3305,1 50166U 21125L   22082.91667824 -.00057211  00000-0 -36021-2 0  9998,2 50166  53.2175 263.9316 0001419  62.5984  38.2686 15.08872490 15094,6917.781,95.435,540.628,538.664,0.0
50166.0,STARLINK-3305,PAYLOAD,2022-03-24 14:00:01,15.08850201,0.0001485,53.213,260.9456,71.3827,52.6889,-0.0013319,-0.00021428,0.0,0 STARLINK-3305,1 50166U 21125L   22083.58334491 -.00021428  00000-0 -13319-2 0  9999,2 50166  53.2130 260.9456 0001485  71.3827  52.6889 15.08850201  3610,6917.849,95.437,540.742,538.687,0.0
50166.0,STARLINK-3305,PAYLOAD,2022-03-24 22:00:00,15.08825019,0.0001549,53.213,259.4507,61.9747,73.7208,0.0032417,0.00051661,0.0,0 STARLINK-3305,1 50166U 21125L   22083.91667824  .00051661  00000-0  32417-2 0  9995,2 50166  53.2130 259.4507 0001549  61.9747  73.7208 15.08825019  3648,6917.926,95.439,540.863,538.72,0.0
50166.0,STARLINK-3305,PAYLOAD,2022-03-25 00:00:02,15.08843448,0.0001541,53.2128,259.0763,61.7379,166.9147,0.0014862,0.00023446,0.0,0 STARLINK-3305,1 50166U 21125L   22084.00002315  .00023446  00000-0  14862-2 0  9998,2 50166  53.2128 259.0763 0001541  61.7379 166.9147 15.08843448 15259,6917.87,95.437,540.8009999999998,538.669,0.0
50166.0,STARLINK-3305,PAYLOAD,2022-03-25 14:00:01,15.08885736,0.0001582,53.2158,256.4507,69.69800000000001,89.1902,-0.00071324,-0.00011636,0.0,0 STARLINK-3305,1 50166U 21125L   22084.58334491 -.00011636  00000-0 -71324-3 0  9991,2 50166  53.2158 256.4507 0001582  69.6980  89.1902 15.08885736  3628,6917.741,95.435,540.7,538.511,0.0
50166.0,STARLINK-3305,PAYLOAD,2022-03-25 22:00:01,15.08816996,0.000168,53.2131,254.9612,63.1216,107.4401,0.0032859,0.00052363,0.0,0 STARLINK-3305,1 50166U 21125L   22084.91668981  .00052363  00000-0  32859-2 0  9991,2 50166  53.2131 254.9612 0001680  63.1216 107.4401 15.08816996 15396,6917.951,95.439,540.9780000000002,538.653,0.0
50166.0,STARLINK-3305,PAYLOAD,2022-03-26 14:00:01,15.08872595,0.0001592,53.2132,251.967,70.8894,122.8107,-0.0012053,-0.00019436,0.0,0 STARLINK-3305,1 50166U 21125L   22085.58334491 -.00019436  00000-0 -12053-2 0  9991,2 50166  53.2132 251.9670 0001592  70.8894 122.8107 15.08872595 15499,6917.781,95.435,540.747,538.544,0.0
50166.0,STARLINK-3305,PAYLOAD,2022-03-26 22:00:00,15.0884469,0.0001588,53.2128,250.4717,62.32100000000001,143.0065,0.00015016,2.103e-05,0.0,0 STARLINK-3305,1 50166U 21125L   22085.91667824  .00002103  00000-0  15016-3 0  9991,2 50166  53.2128 250.4717 0001588  62.3210 143.0065 15.08844690  3628,6917.866,95.437,540.83,538.632,0.0
50166.0,STARLINK-3305,PAYLOAD,2022-03-27 14:00:01,15.08865056,0.0001438,53.2128,247.4776,69.2151,159.3163,-0.0012014,-0.0001937,0.0,0 STARLINK-3305,1 50166U 21125L   22086.58334491 -.00019370  00000-0 -12014-2 0  9996,2 50166  53.2128 247.4776 0001438  69.2151 159.3163 15.08865056  3632,6917.804,95.436,540.664,538.674,0.0
50166.0,STARLINK-3305,PAYLOAD,2022-03-27 22:00:01,15.08841708,0.0001440999999999,53.2124,245.9821,60.1844,180.0283,2.3523e-05,8.6e-07,0.0,0 STARLINK-3305,1 50166U 21125L   22086.91668981  .00000086  00000-0  23523-4 0  9998,2 50166  53.2124 245.9821 0001441  60.1844 180.0283 15.08841708 15696,6917.875,95.437,540.737,538.743,0.0
50166.0,STARLINK-3305,PAYLOAD,2022-03-28 14:00:01,15.08876935,0.0001366,53.2123,242.9881,67.6467,195.7695,-0.0029882,-0.00047579,0.0,0 STARLINK-3305,1 50166U 21125L   22087.58335648 -.00047579  00000-0 -29882-2 0  9995,2 50166  53.2123 242.9881 0001366  67.6467 195.7695 15.08876935  3627,6917.767,95.435,540.577,538.688,0.0
